{"type": "FeatureCollection", "features": [ {"type": "Feature", "properties": {"norad_id": 30726, "name": "FENGYUN 1C DEB", "group": "fengyun-1c-debris", "lat": -31.483989225241036, "lon": -3.7563726227004532, "alt_km": 884.1993182622391, "timestamp": "2025-12-14T16:47:40.962135+00:00", "meta": {"OBJECT_NAME": "FENGYUN 1C DEB", "OBJECT_ID": "1999-025ASL", "EPOCH": "2025-12-13T22:29:39.183648", "MEAN_MOTION": 14.09307571, "ECCENTRICITY": 0.00781728, "INCLINATION": 99.2683, "RA_OF_ASC_NODE": 349.7201, "ARG_OF_PERICENTER": 222.8887, "MEAN_ANOMALY": 197.8717, "EPHEMERIS_TYPE": 0, "CLASSIFICATION_TYPE": "U", "NORAD_CAT_ID": 30726, "ELEMENT_SET_NO": 999, "REV_AT_EPOCH": 96000, "BSTAR": 0.0015184268, "MEAN_MOTION_DOT": 2.674e-05, "MEAN_MOTION_DDOT": 0}, "tle": {"line1": "1 30726U 99025ASL 25347.93725907  .00002674  00000+0  15184-2 0  9995", "line2": "2 30726  99.2683 349.7201 0078172 222.8887 197.8717 14.09307571960007"}}, "geometry": {"type": "Point", "coordinates": [-3.7563726227004532, -31.483989225241036]}}, {"type": "Feature", "properties": {"norad_id": 30728, "name": "FENGYUN 1C DEB", "group": "fengyun-1c-debris", "lat": -25.569231739661618, "lon": -0.5573653389030542, "alt_km": 833.5213553837903, "timestamp": "2025-12-14T16:47:40.962146+00:00", "meta": {"OBJECT_NAME": "FENGYUN 1C DEB", "OBJECT_ID": "1999-025ASN", "EPOCH": "2025-12-14T00:02:46.523904", "MEAN_MOTION": 14.23474718, "ECCENTRICITY": 0.00995269, "INCLINATION": 98.5294, "RA_OF_ASC_NODE": 354.6485, "ARG_OF_PERICENTER": 78.3551, "MEAN_ANOMALY": 282.8778, "EPHEMERIS_TYPE": 0, "CLASSIFICATION_TYPE": "U", "NORAD_CAT_ID": 30728, "ELEMENT_SET_NO": 999, "REV_AT_EPOCH": 97707, "BSTAR": 0.00010149074, "MEAN_MOTION_DOT": 2.01e-06, "MEAN_MOTION_DDOT": 0}, "tle": {"line1": "1 30728U 99025ASN 25348.00192736  .00000201  00000+0  10149-3 0  9995", "line2": "2 30728  98.5294 354.6485 0099526  78.3551 282.8778 14.23474718977077"}}, "geometry": {"type": "Point", "coordinates": [-0.5573653389030542, -25.569231739661618]}}, {"type": "Feature", "properties": {"norad_id": 30730, "name": "FENGYUN 1C DEB", "group": "fengyun-1c-debris", "lat": -71.07610002308301, "lon": 54.0441902322472, "alt_km": 839.0309161162368, "timestamp": "2025-12-14T16:47:40.962156+00:00", "meta": {"OBJECT_NAME": "FENGYUN 1C DEB", "OBJECT_ID": "1999-025ASQ", "EPOCH": "2025-12-13T14:46:32.460672", "MEAN_MOTION": 14.25481595, "ECCENTRICITY": 0.00783176, "INCLINATION": 98.6188, "RA_OF_ASC_NODE": 26.7226, "ARG_OF_PERICENTER": 46.7798, "MEAN_ANOMALY": 80.6707, "EPHEMERIS_TYPE": 0, "CLASSIFICATION_TYPE": "U", "NORAD_CAT_ID": 30730, "ELEMENT_SET_NO": 999, "REV_AT_EPOCH": 97018, "BSTAR": 0.0012570054, "MEAN_MOTION_DOT": 3.024e-05, "MEAN_MOTION_DDOT": 0}, "tle": {"line1": "1 30730U 99025ASQ 25347.61565348  .00003024  00000+0  12570-2 0  9992", "line2": "2 30730  98.6188  26.7226 0078317  46.7798  80.6707 14.25481595970184"}}, "geometry": {"type": "Point", "coordinates": [54.0441902322472, -71.07610002308301]}}, {"type": "Feature", "properties": {"norad_id": 30731, "name": "FENGYUN 1C DEB", "group": "fengyun-1c-debris", "lat": -29.982311800713376, "lon": -116.981797271608, "alt_km": 749.1651538908864, "timestamp": "2025-12-14T16:47:40.962167+00:00", "meta": {"OBJECT_NAME": "FENGYUN 1C DEB", "OBJECT_ID": "1999-025ASR", "EPOCH": "2025-12-13T21:45:20.715264", "MEAN_MOTION": 14.41792199, "ECCENTRICITY": 0.00149886, "INCLINATION": 98.8595, "RA_OF_ASC_NODE": 67.3584, "ARG_OF_PERICENTER": 242.3789, "MEAN_ANOMALY": 172.7867, "EPHEMERIS_TYPE": 0, "CLASSIFICATION_TYPE": "U", "NORAD_CAT_ID": 30731, "ELEMENT_SET_NO": 999, "REV_AT_EPOCH": 97373, "BSTAR": 0.0025082688, "MEAN_MOTION_DOT": 8.166e-05, "MEAN_MOTION_DDOT": 0}, "tle": {"line1": "1 30731U 99025ASR 25347.90648976  .00008166  00000+0  25083-2 0  9999", "line2": "2 30731  98.8595  67.3584 0014988 242.3789 172.7867 14.41792199973732"}}, "geometry": {"type": "Point", "coordinates": [-116.981797271608, -29.982311800713376]}}, {"type": "Feature", "properties": {"norad_id": 30732, "name": "FENGYUN 1C DEB", "group": "fengyun-1c-debris", "lat": 50.73628744298598, "lon": -2.1775300149635686, "alt_km": 954.6389198062016, "timestamp": "2025-12-14T16:47:40.962177+00:00", "meta": {"OBJECT_NAME": "FENGYUN 1C DEB", "OBJECT_ID": "1999-025ASS", "EPOCH": "2025-12-13T23:45:00.792864", "MEAN_MOTION": 14.03904459, "ECCENTRICITY": 0.01238517, "INCLINATION": 98.8047, "RA_OF_ASC_NODE": 8.0641, "ARG_OF_PERICENTER": 205.5207, "MEAN_ANOMALY": 219.4604, "EPHEMERIS_TYPE": 0, "CLASSIFICATION_TYPE": "U", "NORAD_CAT_ID": 30732, "ELEMENT_SET_NO": 999, "REV_AT_EPOCH": 96209, "BSTAR": 0.00051720238, "MEAN_MOTION_DOT": 8.31e-06, "MEAN_MOTION_DDOT": 0}, "tle": {"line1": "1 30732U 99025ASS 25347.98959251  .00000831  00000+0  51720-3 0  9998", "line2": "2 30732  98.8047   8.0641 0123851 205.5207 219.4604 14.03904459962094"}}, "geometry": {"type": "Point", "coordinates": [-2.1775300149635686, 50.73628744298598]}}, {"type": "Feature", "properties": {"norad_id": 30735, "name": "FENGYUN 1C DEB", "group": "fengyun-1c-debris", "lat": 62.24748341218768, "lon": 42.70977969393776, "alt_km": 848.4260670945941, "timestamp": "2025-12-14T16:47:40.962187+00:00", "meta": {"OBJECT_NAME": "FENGYUN 1C DEB", "OBJECT_ID": "1999-025ASV", "EPOCH": "2025-12-12T03:55:20.828928", "MEAN_MOTION": 14.23959181, "ECCENTRICITY": 0.00594725, "INCLINATION": 98.763, "RA_OF_ASC_NODE": 57.2283, "ARG_OF_PERICENTER": 246.5442, "MEAN_ANOMALY": 142.3816, "EPHEMERIS_TYPE": 0, "CLASSIFICATION_TYPE": "U", "NORAD_CAT_ID": 30735, "ELEMENT_SET_NO": 999, "REV_AT_EPOCH": 96740, "BSTAR": 0.0025666711, "MEAN_MOTION_DOT": 5.956e-05, "MEAN_MOTION_DDOT": 0}, "tle": {"line1": "1 30735U 99025ASV 25346.16343552  .00005956  00000+0  25667-2 0  9994", "line2": "2 30735  98.7630  57.2283 0059472 246.5442 142.3816 14.23959181967408"}}, "geometry": {"type": "Point", "coordinates": [42.70977969393776, 62.24748341218768]}}, {"type": "Feature", "properties": {"norad_id": 30736, "name": "FENGYUN 1C DEB", "group": "fengyun-1c-debris", "lat": -54.17567400362103, "lon": -165.920235615921, "alt_km": 1242.8741492818717, "timestamp": "2025-12-14T16:47:40.962197+00:00", "meta": {"OBJECT_NAME": "FENGYUN 1C DEB", "OBJECT_ID": "1999-025ASW", "EPOCH": "2025-12-06T16:01:27.387840", "MEAN_MOTION": 13.61611053, "ECCENTRICITY": 0.02800041, "INCLINATION": 98.7811, "RA_OF_ASC_NODE": 19.2067, "ARG_OF_PERICENTER": 70.187, "MEAN_ANOMALY": 53.7062, "EPHEMERIS_TYPE": 0, "CLASSIFICATION_TYPE": "U", "NORAD_CAT_ID": 30736, "ELEMENT_SET_NO": 999, "REV_AT_EPOCH": 92770, "BSTAR": 0.0030781788, "MEAN_MOTION_DOT": 3.026e-05, "MEAN_MOTION_DDOT": 0}, "tle": {"line1": "1 30736U 99025ASW 25340.66767810  .00003026  00000+0  30782-2 0  9991", "line2": "2 30736  98.7811  19.2067 0280004  70.1870  53.7062 13.61611053927702"}}, "geometry": {"type": "Point", "coordinates": [-165.920235615921, -54.17567400362103]}}, {"type": "Feature", "properties": {"norad_id": 30737, "name": "FENGYUN 1C DEB", "group": "fengyun-1c-debris", "lat": -50.88347749198647, "lon": -18.349500778600476, "alt_km": 855.5574025075866, "timestamp": "2025-12-14T16:47:40.962208+00:00", "meta": {"OBJECT_NAME": "FENGYUN 1C DEB", "OBJECT_ID": "1999-025ASX", "EPOCH": "2025-12-13T22:32:16.131840", "MEAN_MOTION": 14.18255738, "ECCENTRICITY": 0.00241747, "INCLINATION": 98.5792, "RA_OF_ASC_NODE": 330.2163, "ARG_OF_PERICENTER": 128.2471, "MEAN_ANOMALY": 258.4031, "EPHEMERIS_TYPE": 0, "CLASSIFICATION_TYPE": "U", "NORAD_CAT_ID": 30737, "ELEMENT_SET_NO": 999, "REV_AT_EPOCH": 97050, "BSTAR": 0.00040859062, "MEAN_MOTION_DOT": 8.01e-06, "MEAN_MOTION_DDOT": 0}, "tle": {"line1": "1 30737U 99025ASX 25347.93907560  .00000801  00000+0  40859-3 0  9992", "line2": "2 30737  98.5792 330.2163 0024174 128.2471 258.4031 14.18255738970501"}}, "geometry": {"type": "Point", "coordinates": [-18.349500778600476, -50.88347749198647]}}, {"type": "Feature", "properties": {"norad_id": 30739, "name": "FENGYUN 1C DEB", "group": "fengyun-1c-debris", "lat": 41.55349952783168, "lon": -32.01011904368813, "alt_km": 839.2227216253568, "timestamp": "2025-12-14T16:47:40.962218+00:00", "meta": {"OBJECT_NAME": "FENGYUN 1C DEB", "OBJECT_ID": "1999-025ASZ", "EPOCH": "2025-12-13T22:14:30.354144", "MEAN_MOTION": 14.14955705, "ECCENTRICITY": 0.01004579, "INCLINATION": 98.6922, "RA_OF_ASC_NODE": 335.0301, "ARG_OF_PERICENTER": 313.735, "MEAN_ANOMALY": 111.8097, "EPHEMERIS_TYPE": 0, "CLASSIFICATION_TYPE": "U", "NORAD_CAT_ID": 30739, "ELEMENT_SET_NO": 999, "REV_AT_EPOCH": 96880, "BSTAR": 0.00059826503, "MEAN_MOTION_DOT": 1.171e-05, "MEAN_MOTION_DDOT": 0}, "tle": {"line1": "1 30739U 99025ASZ 25347.92674021  .00001171  00000+0  59827-3 0  9992", "line2": "2 30739  98.6922 335.0301 0100457 313.7350 111.8097 14.14955705968803"}}, "geometry": {"type": "Point", "coordinates": [-32.01011904368813, 41.55349952783168]}}, {"type": "Feature", "properties": {"norad_id": 30740, "name": "FENGYUN 1C DEB", "group": "fengyun-1c-debris", "lat": -40.67467593132386, "lon": 101.42018056738736, "alt_km": 748.0453731526113, "timestamp": "2025-12-14T16:47:40.962229+00:00", "meta": {"OBJECT_NAME": "FENGYUN 1C DEB", "OBJECT_ID": "1999-025ATA", "EPOCH": "2025-12-13T17:49:50.782368", "MEAN_MOTION": 14.51952058, "ECCENTRICITY": 0.00318442, "INCLINATION": 98.6884, "RA_OF_ASC_NODE": 92.8798, "ARG_OF_PERICENTER": 132.7096, "MEAN_ANOMALY": 227.6788, "EPHEMERIS_TYPE": 0, "CLASSIFICATION_TYPE": "U", "NORAD_CAT_ID": 30740, "ELEMENT_SET_NO": 999, "REV_AT_EPOCH": 97662, "BSTAR": 0.0029429337, "MEAN_MOTION_DOT": 0.00011925, "MEAN_MOTION_DDOT": 0}, "tle": {"line1": "1 30740U 99025ATA 25347.74294887  .00011925  00000+0  29429-2 0  9994", "line2": "2 30740  98.6884  92.8798 0031844 132.7096 227.6788 14.51952058976620"}}, "geometry": {"type": "Point", "coordinates": [101.42018056738736, -40.67467593132386]}}]}